# From MPEC 2022-S20
C/1995 O1 (Hale-Bopp),e,89.3190,282.6677,130.4100,176.9254,0.0004188,0.99496878,0.0000,03/29.6178/1997,2000,g -2.0,4.0
# From NK 1615
P/1996 R2 (Lagerkvist),e,2.6010,40.0084,333.3976,3.774572,0.1344010,0.31457826,183.3251,11/08.0/2022,2000,g 11.5,4.0
# From MPC 75703
P/1998 VS24 (LINEAR),e,5.0265,159.0389,244.6285,4.525307,0.1023840,0.24317394,179.4598,11/08.0/2022,2000,g 13.0,2.0
# From NK 731
P/1999 RO28 (LONEOS),e,7.5655,137.8707,231.2998,3.426487,0.1553927,0.67252865,191.1325,11/08.0/2022,2000,g 20.0,2.0
# From MPC 75704
P/1999 XN120 (Catalina),e,5.0298,285.2963,161.6840,4.179014,0.1153701,0.21041366,228.3436,11/08.0/2022,2000,g 13.5,2.0
# From NK 744
P/2000 R2 (LINEAR),e,11.6865,160.2856,176.5897,3.467693,0.1526311,0.53141102,189.1310,11/08.0/2022,2000,g 18.0,4.0
# From MPC 43019
P/2001 H5 (NEAT),e,8.3670,328.6839,224.7338,6.095912,0.0654856,0.59820373,169.1050,11/08.0/2022,2000,g 12.0,4.0
# From MPC 75704
P/2001 Q6 (NEAT),e,56.9114,22.1850,42.9387,7.958937,0.0438957,0.82336188,339.0448,11/08.0/2022,2000,g 13.5,4.0
# From MPC 47727
P/2002 EJ57 (LINEAR),e,4.9777,330.3068,167.2865,6.463244,0.0599830,0.59240358,96.2515,11/08.0/2022,2000,g 12.5,4.0
# From MPC109588
P/2002 T6 (NEAT-LINEAR),e,10.8525,206.0649,219.5394,7.731863,0.0458435,0.56259526,331.5872,11/08.0/2022,2000,g 10.5,4.0
# From MPC 75007
C/2002 VQ94 (LINEAR),e,70.6929,35.1427,99.9778,184.2995,0.0003939,0.96307209,2.4132,11/08.0/2022,2000,g  9.5,2.0
# From MPEC 2022-V95
P/2003 CC22 (Sheppard-Jewitt),e,6.4229,123.7031,37.0647,7.292068,0.0500528,0.42703673,351.5511,11/08.0/2022,2000,g  9.0,4.0
# From MPC 50354
P/2003 F2 (NEAT),e,11.6115,358.9924,192.2630,6.501841,0.0594497,0.54137080,64.9106,11/08.0/2022,2000,g 16.5,2.0
# From MPC 50139
P/2003 QX29 (NEAT),e,11.3936,264.5135,37.6655,8.015505,0.0434318,0.47253383,316.4573,11/08.0/2022,2000,g  8.5,4.0
# From MPC105235
P/2003 T12 (SOHO),e,11.0225,174.5858,219.7503,2.585424,0.2370863,0.77015049,216.8640,11/08.0/2022,2000,g 17.0,4.0
# From MPEC 2022-TA6
P/2004 A1 (LONEOS),e,10.5517,124.8581,21.1015,7.971297,0.0437936,0.31016150,292.9134,11/08.0/2022,2000,g  6.5,4.0
# From MPC 54558
P/2004 DO29 (Spacewatch-LINEAR),e,14.5310,147.3770,40.5046,7.296043,0.0500119,0.44129455,331.3071,11/08.0/2022,2000,g 13.5,2.0
# From MPC 54823
P/2004 FY140 (LINEAR),e,2.1348,326.7806,242.0995,4.907003,0.0906733,0.16786187,242.2268,11/08.0/2022,2000,g 12.5,2.0
# From MPC 53304
P/2004 R3 (LINEAR-NEAT),e,12.7820,305.3171,37.6735,4.763644,0.0947971,0.25562231,39.2057,11/08.0/2022,2000,g 14.5,4.0
# From MPC 55521
P/2004 V3 (Siding Spring),e,50.4438,356.1294,322.4897,7.129679,0.0517725,0.44591546,340.3225,11/08.0/2022,2000,g 11.5,4.0
# From MPC 75705
P/2004 V5 (LINEAR-Hill),e,19.3434,47.7817,87.5629,7.990302,0.0436374,0.44481194,284.0773,11/08.0/2022,2000,g  8.0,4.0
# From MPC 54164
P/2005 E1 (Tubbiolo),e,4.2631,335.5760,193.8849,7.050666,0.0526452,0.37560429,342.9260,11/08.0/2022,2000,g 10.0,4.0
# From MPC 79019
P/2005 J1 (McNaught),e,31.7385,268.8282,338.9281,3.571941,0.1459983,0.56901282,217.3483,11/08.0/2022,2000,g 16.5,4.0
# From MPC 74246
P/2005 L1 (McNaught),e,7.7275,138.2152,150.1239,3.991763,0.1235825,0.21254080,45.4924,11/08.0/2022,2000,g  9.5,4.0
# From MPC 75706
P/2005 S2 (Skiff),e,3.1356,161.2227,229.4362,8.004794,0.0435190,0.19856855,261.5718,11/08.0/2022,2000,g  7.5,4.0
# From MPC 75706
P/2005 SB216 (LONEOS),e,24.1145,1.1232,83.2418,7.145851,0.0515968,0.46465661,299.9135,11/08.0/2022,2000,g 12.0,2.0
# From MPC 73461
P/2005 T3 (Read),e,6.2238,27.6670,6.6812,7.588448,0.0471492,0.17538785,295.1494,11/08.0/2022,2000,g  9.0,4.0
# From MPC 73461
P/2005 T4 (SWAN),e,160.2689,25.9184,41.8372,9.358966,0.0344241,0.92978942,214.7745,11/08.0/2022,2000,g 15.0,4.0
# From MPC 75706
P/2005 T5 (Broughton),e,21.3793,57.0013,304.6952,7.280317,0.0501740,0.55265804,312.3726,11/08.0/2022,2000,g 11.0,4.0
# From MPC 75707
P/2006 HR30 (Siding Spring),e,31.8613,309.8309,117.3802,7.808663,0.0451689,0.84312461,262.3322,11/08.0/2022,2000,g 11.0,4.0
# From MPEC 2022-TA7
P/2007 A2 (Christensen),e,26.4829,300.9126,186.6921,6.336583,0.0617905,0.55836483,358.7941,11/08.0/2022,2000,g 13.5,4.0
# From MPC 75707
P/2007 C2 (Catalina),e,8.6068,275.2965,180.1735,6.999402,0.0532246,0.47214744,294.4742,11/08.0/2022,2000,g 10.0,4.0
# From MPC 84315
C/2007 D1 (LINEAR),e,41.5017,171.2314,339.7947,1189,0.0000241,0.99260794,0.0000,06/07.1903/2007,2000,g  3.5,4.0
# From MPC 82314
P/2007 K2 (Gibbs),e,7.6275,188.6345,347.3463,7.276205,0.0502165,0.68313366,284.0213,11/08.0/2022,2000,g 14.0,4.0
# From MPC 60925
P/2007 Q2 (Gilmore),e,10.2027,172.1532,162.8558,5.657591,0.0732414,0.67000976,52.0778,11/08.0/2022,2000,g 16.0,4.0
# From MPC 73462
P/2007 S1 (Zhao),e,5.9610,141.3504,245.2115,3.820324,0.1319939,0.33912160,4.2414,11/08.0/2022,2000,g 13.0,4.0
# From MPC 61994
P/2007 T2 (Kowalski),e,9.7521,3.3772,359.6656,3.045572,0.1854389,0.78567952,290.5345,11/08.0/2022,2000,g 18.5,4.0
# From MPC 75709
P/2008 L2 (Hill),e,25.8682,218.0174,141.2631,6.028112,0.0665935,0.61348481,347.7429,11/08.0/2022,2000,g 12.5,4.0
# From MPC 64114
P/2008 O3 (Boattini),e,32.3330,47.5635,341.1698,8.215268,0.0418573,0.69638290,220.6785,11/08.0/2022,2000,g 13.0,4.0
# From MPC 75710
P/2008 Y3 (McNaught),e,38.7793,262.8589,238.0390,8.047576,0.0431724,0.44588555,219.1552,11/08.0/2022,2000,g  8.5,4.0
# From MPC 75710
P/2009 B1 (Boattini),e,22.2363,297.0744,128.9034,6.737020,0.0563641,0.63562900,284.9962,11/08.0/2022,2000,g 13.0,4.0
# From MPC 66466
C/2009 G1 (STEREO),e,108.5009,120.5641,175.5107,465.9537,0.0000980,0.99755474,0.0000,04/18.4298/2009,2000,g  9.0,4.0
# From MPC 75710
P/2009 O3 (Hill),e,16.2889,183.6849,154.4916,7.766915,0.0455335,0.68775302,223.5969,11/08.0/2022,2000,g 12.5,4.0
# From MPC 68902
P/2009 Q5 (McNaught),e,40.9841,160.2731,209.1101,7.429642,0.0486690,0.60985439,233.7323,11/08.0/2022,2000,g 10.0,4.0
# From MPC112389
P/2009 T2 (La Sagra),e,27.6061,215.9005,216.3250,7.718468,0.0459629,0.76646909,215.8109,11/08.0/2022,2000,g 14.0,4.0
# From MPC105235
P/2009 WX51 (Catalina),e,9.5948,31.5639,118.2628,3.082793,0.1820906,0.73938291,131.4999,11/08.0/2022,2000,g 19.0,2.0
# From MPC 74247
P/2009 Y2 (Kowalski),e,29.9626,262.0433,172.1345,6.549534,0.0588015,0.63679385,272.6622,11/08.0/2022,2000,g 13.0,4.0
# From MPC 75711
P/2010 A3 (Hill),e,14.8155,63.6290,42.2856,6.086935,0.0656305,0.73374906,303.8978,11/08.0/2022,2000,g 14.0,4.0
# From MPC 75008
P/2010 C1 (Scotti),e,9.1252,141.8688,3.3586,7.105449,0.0520375,0.26053595,247.5854,11/08.0/2022,2000,g  9.5,4.0
# From MPC 75008
P/2010 D2 (WISE),e,57.0990,319.8830,119.9293,6.721345,0.0565614,0.45143896,263.5779,11/08.0/2022,2000,g 16.0,4.0
# From MPC 75009
P/2010 E2 (Jarnac),e,15.3850,177.8200,8.2994,8.640232,0.0388075,0.71943003,178.9934,11/08.0/2022,2000,g 14.0,4.0
# From MPC 72851
P/2010 H2 (Vales),e,14.2792,64.1865,128.0174,3.832062,0.1313879,0.19666141,247.9282,11/08.0/2022,2000,g  6.0,4.0
# From MPC 70361
P/2010 H3 (SOHO),e,23.0839,77.1056,26.1354,3.036252,0.1862933,0.98538254,0.0000,02/07.8604/2021,2000,g 20.0,2.0
# From MPC 73463
P/2010 H4 (Scotti),e,2.3177,44.7253,179.3062,6.600527,0.0581214,0.26614575,263.7699,11/08.0/2022,2000,g 10.5,4.0
# From MPC 74637
P/2010 H5 (Scotti),e,14.0571,24.7929,174.7198,7.171167,0.0513239,0.15251542,237.0780,11/08.0/2022,2000,g 13.0,2.0
# From MPC 98558
P/2010 J3 (McMillan),e,13.2641,106.4696,157.5758,8.980489,0.0366230,0.72552061,163.2664,11/08.0/2022,2000,g 11.0,4.0
# From MPC 84315
P/2010 JC81 (WISE),e,38.8235,30.8691,12.4285,8.105763,0.0427084,0.77791709,180.0092,11/08.0/2022,2000,g  9.0,4.0
# From MPC 74248
P/2010 T2 (PANSTARRS),e,7.8881,58.5318,352.6045,5.573342,0.0749084,0.32374553,323.0419,11/08.0/2022,2000,g 11.5,4.0
# From MPC 98558
P/2010 TO20 (LINEAR-Grauer),e,2.4787,43.2838,267.5278,5.833134,0.0699602,0.05566993,358.5470,11/08.0/2022,2000,g  9.0,4.0
# From MPC 82316
P/2010 U1 (Boattini),e,8.2205,280.6791,86.2675,6.501370,0.0594561,0.24915001,276.8808,11/08.0/2022,2000,g  9.5,4.0
# From MPEC 2022-OB6
C/2010 U3 (Boattini),e,55.5557,42.9939,88.0390,2594,0.0000075,0.99674568,0.0000,02/25.2934/2019,2000,g  1.0,4.0
# From MPC 79021
P/2010 UH55 (Spacewatch),e,8.0381,232.9034,225.1448,6.654613,0.0574143,0.56375306,243.1701,11/08.0/2022,2000,g 11.0,4.0
# From MPC 75009
P/2010 WK (LINEAR),e,11.4016,11.3334,40.9825,5.762294,0.0712543,0.69051233,315.7231,11/08.0/2022,2000,g 14.5,2.0
# From MPC 84021
P/2011 C2 (Gibbs),e,10.8874,12.1202,160.4897,7.412581,0.0488371,0.26917473,194.3351,11/08.0/2022,2000,g  9.0,4.0
# From MPC 79866
P/2011 FR143 (Lemmon),e,15.9757,190.9492,349.9270,6.863759,0.0548102,0.45067546,234.6909,11/08.0/2022,2000,g 14.0,2.0
# From MPC 82317
P/2011 JB15 (Spacewatch-Boattini),e,19.1462,153.5889,111.0457,7.366507,0.0492960,0.31592991,194.6464,11/08.0/2022,2000,g  9.0,4.0
# From MPC 87913
P/2011 N1 (ASH),e,35.7677,77.5775,330.3895,6.244481,0.0631625,0.54504009,241.3394,11/08.0/2022,2000,g 11.5,4.0
# From MPC 75714
P/2011 NO1 (Elenin),e,15.2445,295.8270,263.7074,5.532135,0.0757469,0.77461830,327.1242,11/08.0/2022,2000,g 15.0,4.0
# From MPEC 2022-ED3
P/2011 P1 (McNaught),e,5.6609,4.2313,349.1463,7.459218,0.0483798,0.32765726,216.8068,11/08.0/2022,2000,g  9.0,4.0
# From MPEC 2022-HC2
P/2011 S1 (Gibbs),e,2.6875,218.8278,192.5024,8.583234,0.0391947,0.20151688,117.8542,11/08.0/2022,2000,g  8.0,4.0
# From MPC 79022
P/2011 UA134 (Spacewatch-PANSTARRS),e,10.4404,40.3985,32.4023,5.609748,0.0741804,0.62978813,298.2802,11/08.0/2022,2000,g 17.5,4.0
# From MPC 77406
P/2011 V1 (Boattini),e,7.3749,46.7821,269.3817,3.857210,0.1301051,0.55008099,194.8568,11/08.0/2022,2000,g 15.5,4.0
# From MPC 82718
P/2011 W1 (PANSTARRS),e,3.7186,161.7848,282.7827,4.666227,0.0977812,0.28805296,26.7036,11/08.0/2022,2000,g 11.5,4.0
# From MPC 79342
P/2011 Y2 (Boattini),e,6.3778,309.3284,131.9505,6.237962,0.0632616,0.71030206,246.7568,11/08.0/2022,2000,g 15.0,4.0
# From MPEC 2022-K19
P/2012 B1 (PANSTARRS),e,7.6101,36.2166,162.3783,6.531842,0.0590406,0.40898206,201.2037,11/08.0/2022,2000,g  9.0,4.0
